full_name,spec_B,diameter,epoch,a,e,i,om,w,ma,moid
"  5381 Sekhmet (1991 JY)",,0.935,2458600.5,.9474527232899398,.2963223541198829,48.96900881352499,58.54115682080383,37.42089253218278,221.7166272599865,.112418
"  5587 (1990 SB)",Sq,3.57,2458600.5,2.396500134429368,.5447867344055286,18.09711644120237,189.9564156217754,86.77114975802901,293.0008467298945,.306512
"  5604 (1992 FE)",V,0.55,2458600.5,.9287449375948726,.4060401011056861,4.713370241113736,311.9349100708521,82.61058080437328,227.0445698193842,.0334274
"  5645 (1990 SP)",,1.668,2458600.5,1.354902830183265,.3875377018188675,13.50653607707802,45.75885969676543,48.18302104109262,354.3546861693613,.0542157
"  5646 (1990 TR)",U,4.3,2458600.5,2.143746530223802,.4356604757820694,7.904975064984591,14.12200814223002,335.7267841030643,46.85564854920813,.21186
"  5653 Camarillo (1992 WD5)",,1.537,2458600.5,1.794293946867205,.3042207355683012,6.87316815479319,9.969434109702359,122.4643260511783,323.8600577014602,.283653
"  5731 Zeus (1988 VP4)",,5.231,2458600.5,2.263322964554826,.6533443284877384,11.42357758336656,281.6685569710377,217.0225958402719,309.6482332718007,.0709834
"  5751 Zao (1992 AC)",X,2.3,2458600.5,2.103180129288249,.4234192668758789,16.07083384329064,121.6733393470848,25.24463063785294,328.0073737182326,.245362
"  6050 Miwablock (1992 AE)",,2.884,2458600.5,2.201492439195205,.4372809934246544,6.405814103528138,88.19352467720309,285.0105857004279,150.0539229415209,.267504
"  6053 (1993 BW3)",Sq,3.720,2458600.5,2.146630396231844,.5288835407626561,21.57813116262826,318.3120000976737,74.87797507053399,175.5766665041434,.221011
"  6063 Jason (1984 KB)",,1.4,2458600.5,2.212560496919458,.7662247381638969,4.918861765247968,169.3965047753018,337.1491174019091,223.2533887614966,.0744951
"  6178 (1986 DA)",,2.3,2458600.5,2.821651835079007,.5816636504402776,4.305608901228269,64.64042332565886,127.3921201196993,357.8776488390534,.190995
"  6455 (1992 HE)",S,4.626,2458600.5,2.24067705016626,.5725540284933216,37.34284404950207,26.95292002114578,262.7398308761709,2.371286623763138,.289287
"  6489 Golevka (1991 JX)",Q,0.53,2452464.5,2.502473955538531,.6052965473603549,2.276480760253867,211.0620214995175,66.65547373733823,274.4136345211533,.0280499
"  7335 (1989 JA)",,1.8,2458600.5,1.77051354016078,.4842595814463578,15.19563035228948,61.32308610996075,232.2535802231915,232.8427770189627,.0216335
"  7350 (1993 VA)",,2.363,2458600.5,1.355879855743813,.391120671197989,7.260726335906435,133.1257553836384,336.5960781914857,15.45043543546233,.080404
"  7482 (1994 PC1)",S,1.052,2458600.5,1.346240044467568,.3282387260218584,33.4867210988066,117.8854792660949,47.63358425329776,66.07736125194663,.000166392
"  7822 (1991 CS)",S,1.602,2458600.5,1.122893540915186,.1646986211078396,37.11994329760697,156.8574635179829,249.4391246076157,325.4990989220708,.022164
"  7839 (1994 ND)",,0.784,2458600.5,2.165048693450337,.5186203557694974,27.11761994007025,102.5420601724638,228.2838739706843,269.3784602549144,.135525
"  7889 (1994 LX)",V,1.680,2458600.5,1.261413272900025,.3462932993717291,36.90898365332638,111.2786554469458,349.1392268454754,25.92719149538891,.154267
"  8013 Gordonmoore (1990 KA)",,2.3,2458600.5,2.199357748682936,.4319531160737035,7.570611869695299,105.5584871951941,146.7728249839228,307.2056850471336,.245525
"  8014 (1990 MF)",,0.7,2458600.5,1.746569216863063,.4559207650530095,1.866968681815631,210.2421541593265,114.3992806771601,157.7700701616476,.0169721
"  8201 (1994 AH2)",O,1.859,2458600.5,2.537240419610046,.7069778790502353,9.553656002703127,164.1054989016626,25.13314305637785,71.75678883605686,.101523
"  8566 (1996 EN)",U,1.568,2458600.5,1.506377944198319,.4303937362869547,37.97291496130058,164.1359845852762,125.1203366459011,103.9097268507831,.0220273
"  8567 (1996 HW1)",,2.928,2458600.5,2.045090864248832,.449411202153944,8.450698674067805,177.12832868,177.2623609228984,225.7427989586769,.120871
"  9162 Kwiila (1987 OA)",,1.127,2458600.5,1.496278945493619,.595757348063251,9.011433456148088,180.1010564393852,235.7219449063068,80.60124261512982,.0808945
"  9202 (1993 PB)",,1.617,2458600.5,1.423733298774788,.607456527487666,40.81916197375682,315.9246000400406,212.326191531635,144.7811490599313,.372763
"  9856 (1991 EE)",,1.0,2458600.5,2.243056168860561,.6259808336921132,9.825564106559762,168.145180491102,116.1567461192006,87.61334433276012,.0222228
" 10115 (1992 SK)",S:,0.938,2458600.5,1.248441187536947,.3248242727670989,15.32072623773594,8.918220610087157,233.6493130304184,111.4191743219336,.0456965
" 10165 (1995 BL2)",L,0.829,2458600.5,1.23469487072075,.5037713639419696,23.89566894391062,312.4408481985741,348.4309414495629,94.90341982533955,.37596
" 11066 Sigurd (1992 CC1)",K,2.778,2458600.5,1.391579376585365,.3752741308818071,36.87786936853653,349.235742769075,22.00373372647735,314.3293010873032,.118482
" 11398 (1998 YP11)",Sr,1.316,2458600.5,1.720810908009164,.3889533315294349,15.02466036177406,144.7914688936139,74.70344862511375,313.7788392715544,.203252
" 11500 Tomaiyowit (1989 UR)",S,0.738,2458600.5,1.079645465476707,.3557227728160029,10.3105120908242,234.4360318699576,289.4439101526445,6.873617807799914,.0342079
" 11885 Summanus (1990 SS)",,1.298,2458600.5,1.703312523644056,.4749435001088871,19.41874350636855,359.8627407955155,116.0773736647917,252.7533050704703,.0674176
" 12538 (1998 OH)",S:,1.663,2458600.5,1.541615161239799,.405942445880855,24.52816135405338,220.7465853148037,321.7288600089306,7.271595380911098,.0286685
" 12923 Zephyr (1999 GK4)",S:,2.060,2458600.5,1.961954177489835,.4918352414290229,5.303308567759982,168.2051673343429,147.0430497270982,54.47276138433357,.021265
" 13651 (1997 BR)",S,0.562,2458600.5,1.335489026544135,.3057281310416528,17.24797684997032,116.6660065078106,133.8046252768486,65.49330674055174,.0147416
" 14402 (1991 DB)",C,0.6,2458600.5,1.714878401612079,.401902145980843,11.41672287084926,158.2343138645865,51.3762017542545,167.8902331290749,.102802
" 14827 Hypnos (1986 JK)",,0.9,2458600.5,2.840473586951714,.6662083359429636,1.980779082991985,57.96585227724242,238.1063687413981,330.3838729527848,.0145434
" 16064 Davidharvey (1999 RH27)",C,4.106,2458600.5,2.849857901602364,.5892304059826627,4.539658767839901,335.5707687946791,104.803639359424,353.8311004298751,.2037
" 16834 (1997 WU22)",S,1.87,2458600.5,1.467985350600078,.4421685146037818,15.99048881388658,260.7974944046721,334.3257973930939,219.2078938605249,.145955
" 17182 (1999 VU)",,2.885,2458600.5,1.38706644508513,.5532180496302913,9.271240300619011,333.5298009052726,203.1418129284503,259.1152340870942,.143861
" 17188 (1999 WC2)",,1.819,2458600.5,2.216720811901729,.636589895934822,29.45015505227671,269.8096539753777,287.2852474343415,294.6666161318213,.0639419
" 17274 (2000 LC16)",Xk,3.183,2458600.5,2.734847166243054,.5532238074065694,5.568494463272575,305.7577094533964,21.30096692410652,53.36570991287061,.212293
" 19356 (1997 GH3)",S,0.91,2458600.5,2.501810616375685,.5627977424253554,3.004427928455816,186.7028486980596,333.87753689078,217.5175599131745,.105203
" 19764 (2000 NF5)",,1.572,2458600.5,2.232919193676214,.4431157875389543,1.326499417779365,281.5143278445655,9.542319465184725,236.1847677164473,.226602
" 20460 Robwhiteley (1999 LO28)",,2.716,2458600.5,1.876806596104631,.4119817815061807,33.94184089202249,280.074197286131,283.6797015566957,296.8162261506255,.329569
" 21088 Chelyabinsk (1992 BL2)",,4.231,2458600.5,1.706433744237758,.2386083466458246,38.45849919989786,297.8496563350758,27.12938603645573,224.1891856815131,.307461
" 23183 (2000 OY21)",,1.098,2458600.5,1.82422500822823,.4010917403191875,40.95829488749694,119.676798205123,301.4270382404736,159.0529973627573,.256996
" 25330 (1999 KV4)",B,3.21,2458600.5,1.540307570227864,.3708082868744116,14.32846711828695,50.60305134736884,85.98864909418971,178.1981895111818,.172981
" 25916 (2001 CP44)",,5.683,2458600.5,2.561702829714614,.4979980696715272,15.74621979514787,94.69375334104602,199.6859104674265,65.32565994675087,.280226
" 26760 (2001 KP41)",,5.400,2458600.5,2.851571357686165,.5579220694250553,11.02006895131632,146.2429037759544,155.1609560722104,239.7876696352371,.257247
" 27346 (2000 DN8)",,1.802,2458600.5,1.875430077197292,.3987829393358753,36.94161435724893,135.2181443285124,269.2646603543485,247.4387283086965,.443963
" 29075 (1950 DA)",,2.000,2458600.5,1.698408089536298,.5080218336424712,12.16956903527482,356.669775802287,224.6722846112279,52.77544385769892,.0401275
" 35107 (1991 VH)",Sk,0.908,2458600.5,1.137453251160994,.1442544541943361,13.91042622956074,139.3565098122205,206.9420795001718,275.3676535718642,.026301
" 36183 (1999 TX16)",Ld,2.339,2458600.5,1.551242307121444,.3323472321608562,38.22366361146468,54.66505626719263,311.1933252695391,68.23814350100125,.135102
" 39572 (1993 DQ1)",,1.554,2458600.5,2.036630050765203,.4923343004984874,10.02389405122211,313.5538757576067,344.8055275929321,247.7235793142464,.0281039
" 39796 (1997 TD)",,2.131,2458600.5,2.250269500960578,.4678408562343319,12.91333529212062,158.9496394498008,170.9546948891938,146.3017596836341,.188897
" 40263 (1999 FQ5)",,0.954,2458600.5,1.494763497576854,.1611224908376343,25.84382759262964,172.8277405826901,198.6989797161069,153.2657688021667,.256596
" 40267 (1999 GJ4)",Sq,1.641,2458600.5,1.338678873411164,.8083211591872037,34.49021009497896,148.2291934195281,211.9308714791042,203.947399186822,.156663
" 48603 (1995 BC2)",X,0.844,2458600.5,1.917303942802563,.4303565469233048,5.02496584780249,328.2878360961319,81.75578630703201,80.65476103329212,.135685
" 52750 (1998 KK17)",,1.059,2458600.5,1.427195570974683,.5250194898594175,11.16572353138885,141.353762609122,334.0845290011008,150.554098223227,.161956
" 52760 (1998 ML14)",,1.0,2458600.5,2.407936092596596,.6234549263809852,2.428051427713431,338.7217911433909,20.29643197943853,179.8565101031533,.0169244
" 52762 (1998 MT24)",,6.742,2458600.5,2.418953956200546,.6512471286840371,33.88252460519207,309.1771451069834,254.4101947621993,224.8204996197915,.142538
